NORAD_CAT_ID,OBJECT_NAME,OBJECT_TYPE,EPOCH,MEAN_MOTION,ECCENTRICITY,INCLINATION,RA_OF_ASC_NODE,ARG_OF_PERICENTER,MEAN_ANOMALY,BSTAR,MEAN_MOTION_DOT,MEAN_MOTION_DDOT,TLE_LINE0,TLE_LINE1,TLE_LINE2,SEMIMAJOR_AXIS,PERIOD,APOGEE,PERIGEE,DECAYED
51772.0,STARLINK-3623,PAYLOAD,2023-03-16 11:35:48,15.08835735,0.000147,53.2168,188.7604,96.8465,263.2694,-5.9491e-05,-1.235e-05,0.0,0 STARLINK-3623,1 51772U 22017E   23075.48320061 -.00001235  00000-0 -59491-4 0  9990,2 51772  53.2168 188.7604 0001470  96.8465 263.2694 15.08835735 58160,6917.893,95.438,540.775,538.741,0.0
51772.0,STARLINK-3623,PAYLOAD,2023-03-17 06:40:26,15.0883801,0.0001486,53.2164,185.1921,93.5407,266.5756,0.00013684,1.89e-05,0.0,0 STARLINK-3623,1 51772U 22017E   23076.27808219  .00001890  00000-0  13684-3 0  9992,2 51772  53.2164 185.1921 0001486  93.5407 266.5756 15.08838010 59790,6917.886,95.438,540.779,538.723,0.0
51772.0,STARLINK-3623,PAYLOAD,2023-03-17 11:26:34,15.08853215,0.0001699,53.2175,184.3002,107.0268,253.091,-0.00018274,-3.196e-05,0.0,0 STARLINK-3623,1 51772U 22017E   23076.47679384 -.00003196  00000-0 -18274-3 0  9996,2 51772  53.2175 184.3002 0001699 107.0268 253.0910 15.08853215 59826,6917.84,95.437,540.88,538.53,0.0
51772.0,STARLINK-3623,PAYLOAD,2023-03-18 00:09:40,15.08847187,0.0001067,53.2166,181.9214,75.9425,284.1685,0.00029062,4.341e-05,0.0,0 STARLINK-3623,1 51772U 22017E   23077.00671781  .00004341  00000-0  29062-3 0  9997,2 51772  53.2166 181.9214 0001067  75.9425 284.1685 15.08847187 59905,6917.858,95.437,540.462,538.985,0.0
51772.0,STARLINK-3623,PAYLOAD,2023-03-18 16:03:31,15.08859859,0.0001192,53.2161,178.9468,77.9013,282.2112,0.00031093,4.667e-05,0.0,0 STARLINK-3623,1 51772U 22017E   23077.66910929  .00004667  00000-0  31093-3 0  9997,2 51772  53.2161 178.9468 0001192  77.9013 282.2112 15.08859859 58497,6917.82,95.436,540.509,538.86,0.0
51772.0,STARLINK-3623,PAYLOAD,2023-03-19 06:21:59,15.08846803,0.0001496,53.2153,176.2702,88.3574,271.7589,9.2049e-06,-1.41e-06,0.0,0 STARLINK-3623,1 51772U 22017E   23078.26527370 -.00000141  00000-0  92049-5 0  9992,2 51772  53.2153 176.2702 0001496  88.3574 271.7589 15.08846803 60090,6917.86,95.437,540.76,538.69,0.0
51772.0,STARLINK-3623,PAYLOAD,2023-03-19 12:43:31,15.0884994,0.0001099,53.2147,175.0803,95.1237,264.988,5.0927e-05,5.23e-06,0.0,0 STARLINK-3623,1 51772U 22017E   23078.53022959  .00000523  00000-0  50927-4 0  9996,2 51772  53.2147 175.0803 0001099  95.1237 264.9880 15.08849940 58622,6917.85,95.437,540.475,538.955,0.0
51772.0,STARLINK-3623,PAYLOAD,2023-03-19 15:54:17,15.08852384,0.0001159,53.2144,174.485,96.3097,263.8027,8.9039e-05,1.13e-05,0.0,0 STARLINK-3623,1 51772U 22017E   23078.66270769  .00001130  00000-0  89039-4 0  9995,2 51772  53.2144 174.4850 0001159  96.3097 263.8027 15.08852384 58647,6917.843,95.437,540.509,538.906,0.0
51772.0,STARLINK-3623,PAYLOAD,2023-03-19 23:51:14,15.08838335,0.0001022,53.2156,172.9984,89.8568,270.2541,8.0688e-05,9.97e-06,0.0,0 STARLINK-3623,1 51772U 22017E   23078.99391450  .00000997  00000-0  80688-4 0  9993,2 51772  53.2156 172.9984 0001022  89.8568 270.2541 15.08838335 60208,6917.885,95.438,540.457,539.043,0.0
51772.0,STARLINK-3623,PAYLOAD,2023-03-20 12:34:19,15.08839895,0.0001367,53.2166,170.6195,85.6562,274.4586,-0.00010894,-2.021e-05,0.0,0 STARLINK-3623,1 51772U 22017E   23079.52383568 -.00002021  00000-0 -10894-3 0  9997,2 51772  53.2166 170.6195 0001367  85.6562 274.4586 15.08839895 58774,6917.881,95.438,540.691,538.8,0.0
51772.0,STARLINK-3623,PAYLOAD,2023-03-21 06:03:33,15.08844244,0.0001386,53.2155,167.3489,91.5976,268.5175,0.00017472,2.494e-05,0.0,0 STARLINK-3623,1 51772U 22017E   23080.25247398  .00002494  00000-0  17472-3 0  9990,2 51772  53.2155 167.3489 0001386  91.5976 268.5175 15.08844244 60390,6917.867,95.437,540.691,538.774,0.0
51772.0,STARLINK-3623,PAYLOAD,2023-03-21 12:25:05,15.08857886,0.0001249,53.2159,166.1583,103.4119,256.7012,0.00028325,4.225e-05,0.0,0 STARLINK-3623,1 51772U 22017E   23080.51742616  .00004225  00000-0  28325-3 0  9995,2 51772  53.2159 166.1583 0001249 103.4119 256.7012 15.08857886 58927,6917.826,95.436,540.555,538.827,0.0
51772.0,STARLINK-3623,PAYLOAD,2023-03-22 05:54:21,15.08837699,0.0001135,53.2165,162.8893,96.5663,263.5459,8.0504e-05,9.94e-06,0.0,0 STARLINK-3623,1 51772U 22017E   23081.24607683  .00000994  00000-0  80504-4 0  9997,2 51772  53.2165 162.8893 0001135  96.5663 263.5459 15.08837699 60543,6917.887,95.438,540.538,538.967,0.0
51772.0,STARLINK-3623,PAYLOAD,2023-03-22 12:15:53,15.08848375,0.000141,53.2165,161.7003,107.024,253.0906,0.00023795,3.502e-05,0.0,0 STARLINK-3623,1 51772U 22017E   23081.51103269  .00003502  00000-0  23795-3 0  9994,2 51772  53.2165 161.7003 0001410 107.0240 253.0906 15.08848375 60587,6917.855,95.437,540.695,538.744,0.0
51772.0,STARLINK-3623,PAYLOAD,2023-03-23 05:45:07,15.08844072,0.0001596,53.2164,158.4287,113.651,246.465,0.00016518,2.342e-05,0.0,0 STARLINK-3623,1 51772U 22017E   23082.23967269  .00002342  00000-0  16518-3 0  9998,2 51772  53.2164 158.4287 0001596 113.6510 246.4650 15.08844072 60695,6917.868,95.437,540.837,538.629,0.0
51772.0,STARLINK-3623,PAYLOAD,2023-03-23 10:31:16,15.08847027,0.0001579,53.2162,157.537,112.3586,247.7573,0.00015705,2.213e-05,0.0,0 STARLINK-3623,1 51772U 22017E   23082.43839110  .00002213  00000-0  15705-3 0  9997,2 51772  53.2162 157.5370 0001579 112.3586 247.7573 15.08847027 59213,6917.859,95.437,540.816,538.632,0.0
51772.0,STARLINK-3623,PAYLOAD,2023-03-23 21:38:58,15.08852015,0.0001421,53.2159,155.4566,105.6265,254.4884,0.00021785,3.182e-05,0.0,0 STARLINK-3623,1 51772U 22017E   23082.90206880  .00003182  00000-0  21785-3 0  9992,2 51772  53.2159 155.4566 0001421 105.6265 254.4884 15.08852015 59288,6917.844,95.437,540.692,538.726,0.0
51772.0,STARLINK-3623,PAYLOAD,2023-03-24 05:35:53,15.08878709,0.0001256,53.2141,153.968,97.8972,262.2163,0.00097604,0.00015296,0.0,0 STARLINK-3623,1 51772U 22017E   23083.23326196  .00015296  00000-0  97604-3 0  9994,2 51772  53.2141 153.9680 0001256  97.8972 262.2163 15.08878709 60841,6917.762,95.435,540.496,538.758,0.0
51772.0,STARLINK-3623,PAYLOAD,2023-03-24 11:57:25,15.08890989,0.0001369,53.2154,152.7783,106.9367,253.1775,0.0011912,0.00018747,0.0,0 STARLINK-3623,1 51772U 22017E   23083.49821082  .00018747  00000-0  11912-2 0  9997,2 51772  53.2154 152.7783 0001369 106.9367 253.1775 15.08890989 59379,6917.725,95.434,540.537,538.643,0.0
51772.0,STARLINK-3623,PAYLOAD,2023-03-24 21:29:44,15.08859404,0.0001549,53.2146,150.9946,78.8136,281.3031,9.0096e-05,1.147e-05,0.0,0 STARLINK-3623,1 51772U 22017E   23083.89565422  .00001147  00000-0  90096-4 0  9992,2 51772  53.2146 150.9946 0001549  78.8136 281.3031 15.08859404 59434,6917.821,95.436,540.758,538.615,0.0
51772.0,STARLINK-3623,PAYLOAD,2023-03-25 03:51:18,15.08813483,0.0001867,53.2142,149.8053,86.6849,273.4357,-0.0011196,-0.0001805,0.0,0 STARLINK-3623,1 51772U 22017E   23084.16062627 -.00018050  00000-0 -11196-2 0  9997,2 51772  53.2142 149.8053 0001867  86.6849 273.4357 15.08813483 60989,6917.961,95.439,541.118,538.535,0.0
51772.0,STARLINK-3623,PAYLOAD,2023-03-25 21:20:34,15.08804369,0.0001581,53.2153,146.535,88.5888,271.5286,0.0009997,0.00015643,0.0,0 STARLINK-3623,1 51772U 22017E   23084.88928708  .00015643  00000-0  99970-3 0  9997,2 51772  53.2153 146.5350 0001581  88.5888 271.5286 15.08804369 59589,6917.989,95.44,540.948,538.761,0.0
51772.0,STARLINK-3623,PAYLOAD,2023-03-26 03:42:07,15.08827097,0.00015,53.215,145.3453,84.9822,275.1341,0.0017561,0.00027761,0.0,0 STARLINK-3623,1 51772U 22017E   23085.15425071  .00027761  00000-0  17561-2 0  9992,2 51772  53.2150 145.3453 0001500  84.9822 275.1341 15.08827097 61135,6917.92,95.438,540.823,538.747,0.0
51772.0,STARLINK-3623,PAYLOAD,2023-03-26 21:11:21,15.08853303,0.0001465,53.2139,142.074,82.7978,277.3181,0.0011812,0.00018568,0.0,0 STARLINK-3623,1 51772U 22017E   23085.88288909  .00018568  00000-0  11812-2 0  9997,2 51772  53.2139 142.0740 0001465  82.7978 277.3181 15.08853303 59731,6917.84,95.437,540.718,538.691,0.0
51772.0,STARLINK-3623,PAYLOAD,2023-03-27 03:32:53,15.08863943,0.0001537,53.2142,140.8845,82.984,277.1327,0.0014201,0.000224,0.0,0 STARLINK-3623,1 51772U 22017E   23086.14784645  .00022400  00000-0  14201-2 0  9990,2 51772  53.2142 140.8845 0001537  82.9840 277.1327 15.08863943 61281,6917.807,95.436,540.735,538.609,0.0
51772.0,STARLINK-3623,PAYLOAD,2023-03-27 13:05:12,15.08867916,0.0001444,53.2144,139.1004,80.1541,279.9614,0.0017731,0.00028065,0.0,0 STARLINK-3623,1 51772U 22017E   23086.54528369  .00028065  00000-0  17731-2 0  9997,2 51772  53.2144 139.1004 0001444  80.1541 279.9614 15.08867916 61346,6917.795,95.436,540.659,538.661,0.0
51772.0,STARLINK-3623,PAYLOAD,2023-03-27 21:02:08,15.08853511,5.89e-05,53.2146,137.6155,44.6846,315.4193,0.00074452,0.00011585,0.0,0 STARLINK-3623,1 51772U 22017E   23086.87648160  .00011585  00000-0  74452-3 0  9998,2 51772  53.2146 137.6155 0000589  44.6846 315.4193 15.08853511 61399,6917.839,95.437,540.112,539.297,0.0
51772.0,STARLINK-3623,PAYLOAD,2023-03-28 06:34:27,15.08847566,0.0001376,53.2147,135.83,76.9267,283.1878,0.00023284,3.42e-05,0.0,0 STARLINK-3623,1 51772U 22017E   23087.27392369  .00003420  00000-0  23284-3 0  9996,2 51772  53.2147 135.8300 0001376  76.9267 283.1878 15.08847566 61453,6917.857,95.437,540.674,538.77,0.0
51772.0,STARLINK-3623,PAYLOAD,2023-03-28 12:55:59,15.08860662,9.68e-05,53.2151,134.6403,89.9884,270.122,0.00061727,9.555e-05,0.0,0 STARLINK-3623,1 51772U 22017E   23087.53887761  .00009555  00000-0  61727-3 0  9999,2 51772  53.2151 134.6403 0000968  89.9884 270.1220 15.08860662 61497,6917.817,95.436,540.352,539.013,0.0
51772.0,STARLINK-3623,PAYLOAD,2023-03-29 06:25:13,15.08848483,0.0001675,53.2138,131.3647,118.1355,241.9807,0.00028369,4.231e-05,0.0,0 STARLINK-3623,1 51772U 22017E   23088.26751890  .00004231  00000-0  28369-3 0  9994,2 51772  53.2138 131.3647 0001675 118.1355 241.9807 15.08848483 61607,6917.854,95.437,540.878,538.561,0.0
